,OBJECT_NAME,OBJECT_ID,EPOCH,MEAN_MOTION,ECCENTRICITY,INCLINATION,RA_OF_ASC_NODE,ARG_OF_PERICENTER,MEAN_ANOMALY,NORAD_CAT_ID,REV_AT_EPOCH,BSTAR,MEAN_MOTION_DOT,MEAN_MOTION_DDOT,SEMIMAJOR_AXIS,PERIOD,APOAPSIS,PERIAPSIS,OBJECT_TYPE,RCS_SIZE,COUNTRY_CODE,LAUNCH_DATE,SITE
9895,EXCITE,2018-099BP,2021-11-01T02:13:35.161248,14.95721654,0.0012363,97.6487,12.5804,320.6981,39.3342,43819,15850,4.8504e-05,4.84e-06,0.0,6958.271,96.275,588.738,571.533,0,1,US,2018.0,AFWTR
9899,GEO-KOMPSAT-2A,2018-100A,2021-10-31T16:06:26.675712,1.00268269,0.0002102,0.0152,255.9972,356.9813,157.0754,43823,1067,0.0,-3.37e-06,0.0,42165.718,1436.147,35796.446,35778.719,0,2,SKOR,2018.0,FRGUI
9900,GSAT 11,2018-100B,2021-10-31T20:09:42.734016,1.00270484,0.0004642,0.0549,274.3201,214.0123,288.479,43824,1056,0.0,-7e-07,0.0,42165.097,1436.116,35806.535,35767.389,0,2,IND,2018.0,FRGUI
9917,AEROCUBE 11-R3,2018-104A,2021-10-31T22:51:56.672928,15.24358885,0.0017886,85.0384,203.3103,27.9551,332.2649,43849,15986,0.00030335,7.494e-05,0.0,6870.848,94.466,505.002,480.424,0,1,US,2018.0,RLLC
9918,SHIELDS 1,2018-104B,2021-10-31T05:21:13.578912,15.2217472,0.001604,85.0333,204.0838,36.6129,323.6205,43850,15962,9.6773e-05,2.267e-05,0.0,6877.419,94.601,510.316,488.253,0,0,US,2018.0,RLLC
9919,ELECTRON KICK STAGE R/B,2018-104C,2021-10-31T19:46:11.257824,15.25147486,0.0015006,85.0394,203.0226,19.7062,340.4758,43851,15987,0.00033419,8.437e-05,0.0,6868.48,94.417,500.651,480.038,1,1,US,2018.0,RLLC
9920,STF-1,2018-104D,2021-10-31T18:48:46.653120,15.23149759,0.0015842,85.0367,204.3482,47.6465,312.6116,43852,15970,0.0002935,6.991e-05,0.0,6874.484,94.541,507.24,485.458,0,0,US,2018.0,RLLC
9923,CHOMPTT,2018-104G,2021-10-31T22:37:15.446496,15.24584185,0.0017249,85.0408,203.0169,11.2778,348.8848,43855,15988,0.00024295,6.048e-05,0.0,6870.171,94.452,503.887,480.186,0,0,US,2018.0,RLLC
9925,DAVINCI,2018-104J,2021-10-31T10:34:54.975648,15.27125187,0.0015778,85.0353,202.7786,36.1035,324.1272,43857,15982,0.00060957,0.00016316,0.0,6862.548,94.295,495.241,473.586,0,0,US,2018.0,RLLC
9928,GOERGEN,2018-104M,2021-10-31T19:18:12.123072,15.2894501,0.0012308,85.0357,201.9347,25.0854,335.0987,43860,15995,0.00082612,0.0002334,0.0,6857.102,94.183,487.407,470.527,0,1,US,2018.0,RLLC
9929,AEROCUBE 11-EAGLESCOUT,2018-104N,2021-10-31T20:03:13.002624,15.24021878,0.0016888,85.0466,204.7389,29.1894,331.0289,43861,15980,0.00027242,6.664e-05,0.0,6871.861,94.487,505.331,482.121,0,1,US,2018.0,RLLC
9931,GSAT 7A,2018-105A,2021-10-31T20:25:42.547296,1.00272778,0.0002466,0.1277,107.465,114.9784,187.1894,43864,1052,0.0,3.3e-07,0.0,42164.454,1436.083,35796.716,35775.921,0,0,IND,2018.0,SRI
9934,ISS DEB (SEDA-AP),1998-067PU,2021-10-31T08:33:01.029888,15.65341733,0.000383,51.6351,323.8636,103.4132,256.729,43870,16288,0.00024902,0.00024818,0.0,6750.393,91.993,374.844,369.673,2,2,ISS,1998.0,TTMTR
9935,HONGYUN 1,2018-108A,2021-11-01T02:15:55.501632,13.50515726,0.0011541,99.8963,321.1664,232.3931,127.6173,43871,14107,3.4838e-05,-2.3e-07,0.0,7448.499,106.626,1078.96,1061.767,0,2,PRC,2018.0,JSC
9937,NAVSTAR 77 (USA 289),2018-109A,2021-11-01T02:11:56.598720,2.00562406,0.0015018,55.0498,158.9085,189.7846,2.0227,43873,2114,0.0,9.1e-07,0.0,26560.454,717.981,20222.207,20142.43,0,2,US,2018.0,AFETR
9938,TJS-3,2018-110A,2021-10-31T21:09:26.325216,1.00269151,6.35e-05,0.021,79.7349,140.0926,196.8365,43874,1047,0.0,6.5e-07,0.0,42165.47,1436.135,35790.013,35784.658,0,2,PRC,2018.0,XSC
