EXCITE                  
1 43819U 18099BP  21305.09276807  .00000484  00000-0  48504-4 0  9993
2 43819  97.6487  12.5804 0012363 320.6981  39.3342 14.95721654158509
GEO-KOMPSAT-2A          
1 43823U 18100A   21304.67114208 -.00000337  00000-0  00000-0 0  9993
2 43823   0.0152 255.9972 0002102 356.9813 157.0754  1.00268269 10676
GSAT-11                 
1 43824U 18100B   21304.84007794 -.00000070  00000-0  00000-0 0  9998
2 43824   0.0549 274.3201 0004642 214.0123 288.4790  1.00270484 10565
TOMSAT R3 (AEROCUBE 11B)
1 43849U 18104A   21304.95273927  .00007494  00000-0  30335-3 0  9997
2 43849  85.0384 203.3103 0017886  27.9551 332.2649 15.24358885159866
SHIELDS 1               
1 43850U 18104B   21304.22307383  .00002267  00000-0  96773-4 0  9995
2 43850  85.0333 204.0838 0016040  36.6129 323.6205 15.22174720159622
ELECTRON KICK STAGE R/B 
1 43851U 18104C   21304.82374141  .00008437  00000-0  33419-3 0  9990
2 43851  85.0394 203.0226 0015006  19.7062 340.4758 15.25147486159878
STF-1                   
1 43852U 18104D   21304.78387330  .00006991  00000-0  29350-3 0  9992
2 43852  85.0367 204.3482 0015842  47.6465 312.6116 15.23149759159706
CHOMPTT                 
1 43855U 18104G   21304.94253989  .00006048  00000-0  24295-3 0  9991
2 43855  85.0408 203.0169 0017249  11.2778 348.8848 15.24584185159889
DAVINCI                 
1 43857U 18104J   21304.44091407  .00016316  00000-0  60957-3 0  9997
2 43857  85.0353 202.7786 0015778  36.1035 324.1272 15.27125187159826
SHFT 1 (GOERGEN)        
1 43860U 18104M   21304.80430698  .00023340  00000-0  82612-3 0  9997
2 43860  85.0357 201.9347 0012308  25.0854 335.0987 15.28945010159954
TOMSAT EAGLESCOUT       
1 43861U 18104N   21304.83556716  .00006664  00000-0  27242-3 0  9999
2 43861  85.0466 204.7389 0016888  29.1894 331.0289 15.24021878159807
GSAT-7A                 
1 43864U 18105A   21304.85118689  .00000033  00000-0  00000+0 0  9991
2 43864   0.1277 107.4650 0002466 114.9784 187.1894  1.00272778 10529
HONGYUN 1               
1 43871U 18108A   21305.09439238 -.00000023  00000-0  34838-4 0  9996
2 43871  99.8963 321.1664 0011541 232.3931 127.6173 13.50515726141072
NAVSTAR 77 (USA 289)    
1 43873U 18109A   21305.09162730  .00000091  00000-0  00000+0 0  9992
2 43873  55.0498 158.9085 0015018 189.7846   2.0227  2.00562406 21148
TJS-3                   
1 43874U 18110A   21304.88155469  .00000065  00000-0  00000-0 0  9994
2 43874   0.0210  79.7349 0000635 140.0926 196.8365  1.00269151 10471
ISS DEB (SEDA-AP)       
1 43870U 98067PU  21304.35626192  .00024818  00000-0  24902-3 0  9999
2 43870  51.6351 323.8636 0003830 103.4132 256.7290 15.65341733162888
